      2.10          N: GNSS NAV DATA                        RINEX VERSION / TYPE
fic2rin                                 01/12/2024 00:17:54 PGM / RUN BY / DATE
                                                            END OF HEADER
8  24  1 11  1 59 44.0 -.161487143487D-03 -.193267624127D-11  .000000000000D+00
     .140000000000D+02  .146406250000D+03  .428553565262D-08 -.247577993129D+01
     .738725066185D-05  .917667965405D-02  .105984508991D-04  .515357985306D+04
     .352784000000D+06 -.577419996262D-07 -.283623542077D+01 -.152736902237D-06
     .955681039311D+00  .174906250000D+03  .295857521185D+00 -.775032283206D-08
     .360729311538D-10  .100000000000D+01  .229600000000D+04  .000000000000D+00
     .240000000000D+01  .000000000000D+00  .512227416039D-08  .140000000000D+02
     .345600000000D+06  .400000000000D+01
30 24  1 11  4  0  0.0 -.446892343462D-03  .454747350886D-11  .000000000000D+00
     .960000000000D+02  .145937500000D+02  .554415950793D-08  .193687792125D+01
     .722706317902D-06  .667542708106D-02  .546872615814D-05  .515369687462D+04
     .360000000000D+06 -.201165676117D-06  .138766315214D+01  .242143869400D-07
     .934933033954D+00  .263156250000D+03 -.254906593599D+01 -.841642200633D-08
     .295726603914D-09  .100000000000D+01  .229600000000D+04  .000000000000D+00
     .240000000000D+01  .000000000000D+00  .372529029846D-08  .960000000000D+02
     .352800000000D+06  .400000000000D+01
23 24  1 11  4  0  0.0  .133028719574D-03  .738964445191D-11  .000000000000D+00
     .122000000000D+03 -.167250000000D+03  .412588614543D-08  .176234754169D+01
    -.858865678310D-05  .396422424819D-02  .472925603390D-05  .515371012306D+04
     .360000000000D+06  .111758708954D-07 -.738707225252D+00  .128522515297D-06
     .977300326493D+00  .297656250000D+03 -.298453793792D+01 -.808105089392D-08
    -.355371945525D-09  .100000000000D+01  .229600000000D+04  .000000000000D+00
     .240000000000D+01  .000000000000D+00 -.838190317154D-08  .122000000000D+03
     .352800000000D+06  .400000000000D+01
20 24  1 11  4  0  0.0  .392135232687D-03 -.193267624127D-11  .000000000000D+00
     .770000000000D+02 -.138250000000D+03  .472341103474D-08 -.281753036735D+01
    -.714324414730D-05  .399798632134D-02  .224448740482D-05  .515370070839D+04
     .360000000000D+06 -.707805156708D-07 -.883813534107D+00 -.135973095894D-06
     .951852434943D+00  .327750000000D+03 -.267898863712D+01 -.835320508738D-08
    -.312155859687D-09  .100000000000D+01  .229600000000D+04  .000000000000D+00
     .240000000000D+01  .000000000000D+00 -.838190317154D-08  .770000000000D+02
     .352800000000D+06  .400000000000D+01
25 24  1 11  4  0  0.0  .484833493829D-03  .136424205266D-11  .000000000000D+00
     .860000000000D+02  .171875000000D+01  .477055585566D-08  .120695011944D+01
     .745058059692D-08  .117317889817D-01  .909715890884D-05  .515362472153D+04
     .360000000000D+06 -.165775418282D-06  .241572059319D+01  .335276126862D-07
     .951196101136D+00  .201000000000D+03  .106531903977D+01 -.808069373619D-08
    -.725387358152D-09  .100000000000D+01  .229600000000D+04  .000000000000D+00
     .340000000000D+01  .000000000000D+00  .558793544769D-08  .860000000000D+02
     .352800000000D+06  .400000000000D+01
28 24  1 11  4  0  0.0 -.952072441578D-04 -.112549969344D-10  .000000000000D+00
     .136000000000D+03  .104375000000D+02  .490163274411D-08  .547762359175D+00
     .573694705963D-06  .746929086745D-03  .563263893127D-05  .515355525780D+04
     .360000000000D+06  .353902578354D-07  .135031319316D+01 -.596046447754D-07
     .960942301298D+00  .273812500000D+03  .170803096751D+01 -.799533303771D-08
     .298583865788D-09  .100000000000D+01  .229600000000D+04  .000000000000D+00
     .240000000000D+01  .000000000000D+00 -.931322574615D-08  .904000000000D+03
     .352800000000D+06  .400000000000D+01
18 24  1 11  4  0  0.0 -.529143493623D-03 -.932232069317D-11  .000000000000D+00
     .790000000000D+02  .545937500000D+02  .451518807571D-08  .282409606511D+01
     .292249023914D-05  .382590701338D-02 -.127963721752D-05  .515363485146D+04
     .360000000000D+06 -.931322574615D-07 -.173940777784D+01 -.800937414169D-07
     .974220712775D+00  .414062500000D+03 -.301957122421D+01 -.839284959587D-08
     .197508227010D-09  .100000000000D+01  .229600000000D+04  .000000000000D+00
     .240000000000D+01  .000000000000D+00 -.838190317154D-08  .847000000000D+03
     .352800000000D+06  .400000000000D+01
9  24  1 11  3 59 44.0  .550183467567D-04  .121644916362D-10  .000000000000D+00
     .160000000000D+02 -.727500000000D+02  .429482175371D-08 -.958159662876D+00
    -.386685132980D-05  .288048549555D-02  .114142894745D-04  .515374891281D+04
     .359984000000D+06  .000000000000D+00  .312972325605D+00  .204890966415D-07
     .957916923805D+00  .159093750000D+03  .201311118948D+01 -.771675000504D-08
     .478591363823D-09  .100000000000D+01  .229600000000D+04  .000000000000D+00
     .240000000000D+01  .000000000000D+00  .139698386192D-08  .160000000000D+02
     .354210000000D+06  .400000000000D+01
25 24  1 11  3 59 44.0  .484833028167D-03  .136424205266D-11  .000000000000D+00
     .200000000000D+01  .171875000000D+01  .477055585566D-08  .120461601462D+01
     .745058059692D-08  .117317856057D-01  .909715890884D-05  .515362471962D+04
     .359984000000D+06 -.165775418282D-06  .241572072193D+01  .335276126862D-07
     .951196109913D+00  .201000000000D+03  .106531939526D+01 -.808069373619D-08
    -.725744515886D-09  .100000000000D+01  .229600000000D+04  .000000000000D+00
     .240000000000D+01  .000000000000D+00  .558793544769D-08  .200000000000D+01
     .354360000000D+06  .400000000000D+01
6  24  1 11  3 59 44.0  .448826700449D-03 -.130739863380D-10  .000000000000D+00
     .600000000000D+01  .584375000000D+02  .414910139816D-08  .292741259613D+01
     .316463410854D-05  .309746596031D-02 -.391155481339D-06  .515354569817D+04
     .359984000000D+06  .242143869400D-07 -.174543761749D+01  .126659870148D-06
     .989440739847D+00  .401812500000D+03 -.812733043719D+00 -.817462622028D-08
     .183936233111D-09  .100000000000D+01  .229600000000D+04  .000000000000D+00
     .240000000000D+01  .000000000000D+00  .372529029846D-08  .600000000000D+01
     .359610000000D+06  .400000000000D+01
9  24  1 11  5 59 44.0  .551054254174D-04  .121644916362D-10  .000000000000D+00
     .170000000000D+02 -.799687500000D+02  .424481967092D-08  .919161596484D-01
    -.422261655331D-05  .288126978558D-02  .115353614092D-04  .515375012970D+04
     .367184000000D+06 -.242143869400D-07  .312916737644D+00  .298023223877D-07
     .957920376292D+00  .154625000000D+03  .201316878456D+01 -.770996400809D-08
     .487520307178D-09  .100000000000D+01  .229600000000D+04  .000000000000D+00
     .240000000000D+01  .000000000000D+00  .139698386192D-08  .170000000000D+02
     .360000000000D+06  .400000000000D+01
6  24  1 11  5 59 44.0  .448732636869D-03 -.130739863380D-10  .000000000000D+00
     .180000000000D+02  .731250000000D+02  .420053211188D-08 -.230564423664D+01
     .391341745853D-05  .309954024851D-02 -.782310962677D-07  .515354175568D+04
     .367184000000D+06 -.670552253723D-07 -.174549647507D+01  .102445483208D-06
     .989442205691D+00  .396937500000D+03 -.812603265331D+00 -.817069748520D-08
     .210365905441D-09  .100000000000D+01  .229600000000D+04  .000000000000D+00
     .240000000000D+01  .000000000000D+00  .372529029846D-08  .180000000000D+02
     .360000000000D+06  .400000000000D+01
